STARLINK-31426          
1 59249U 24049U   26068.36227425 -.00005052  00000+0 -17414-3 0  9994
2 59249  43.0019 145.5804 0001029 287.9393  72.1347 15.27588405112348
LIZZIESAT-2 (LS-2)      
1 62383U 24247G   26068.49140277  .00009388  00000+0  34517-3 0  9997
2 62383  44.9909 117.0823 0004092 327.5136  32.5495 15.28222796 67716
